{"type":"FeatureCollection","features":[{"type":"Feature","properties":{"name":"Netherlands"},"bbox":[-68.371094,12.03208,7.197266,53.625488],"geometry":{"type":"MultiPolygon","coordinates":[[[[5.9939,50.7504],[5.8925,50.7526],[5.7974,50.7545],[5.7471,50.7596],[5.6937,50.7747],[5.6936,50.7748],[5.6691,50.806],[5.6395,50.8436],[5.6476,50.8666],[5.7366,50.9321],[5.75,50.9502],[5.7408,50.9599],[5.7498,50.9888],[5.8183,51.0864],[5.8271,51.1256],[5.7965,51.1531],[5.7523,51.1695],[5.6088,51.1984],[5.5404,51.2393],[5.5088,51.275],[5.4769,51.2851],[5.4298,51.273],[5.3108,51.2597],[5.2142,51.279],[5.0999,51.3465],[5.0734,51.4068],[5.0595,51.4531],[5.031,51.4691],[4.9926,51.4454],[4.9439,51.4078],[4.848,51.4033],[4.8207,51.4121],[4.816,51.4328],[4.8105,51.4527],[4.7842,51.4774],[4.7557,51.4911],[4.634,51.4217],[4.5888,51.4219],[4.5316,51.4486],[4.5034,51.4747],[4.4409,51.4598],[4.3848,51.4276],[4.404,51.3671],[4.3737,51.356],[4.3045,51.3615],[4.2262,51.3865],[4.1389,51.4015],[4.0065,51.4432],[3.8219,51.4094],[3.6936,51.4499],[3.5869,51.4539],[3.5205,51.4862],[3.4489,51.5408],[3.4996,51.5767],[3.5486,51.5891],[3.7439,51.596],[3.886,51.5742],[4.1413,51.4558],[4.2058,51.4567],[4.2741,51.4716],[4.2394,51.5039],[4.1755,51.5193],[4.0805,51.5511],[4.0048,51.5958],[4.1826,51.6103],[4.158,51.6334],[4.1346,51.6729],[3.9469,51.8105],[3.9789,51.8478],[4.0261,51.9277],[4.0849,51.9941],[4.1317,52.0119],[4.2088,52.059],[4.3763,52.1968],[4.4828,52.3092],[4.5621,52.4426],[4.6783,52.8098],[4.7127,52.8721],[4.7687,52.9413],[4.8391,52.9283],[4.888,52.9083],[5.0612,52.9606],[5.3584,53.0965],[5.446,53.2141],[5.532,53.2687],[5.8735,53.3752],[6.0622,53.4071],[6.3532,53.4153],[6.5636,53.4343],[6.8162,53.4412],[6.9124,53.3754],[6.9682,53.3273],[7.058,53.3006],[7.1973,53.2823],[7.189,53.1872],[7.1899,52.9995],[7.1795,52.9662],[7.1171,52.887],[7.0509,52.7448],[7.033,52.6514],[7.0132,52.6335],[6.7484,52.6341],[6.7107,52.6179],[6.7054,52.5977],[6.7188,52.5736],[6.7124,52.5497],[6.6916,52.5302],[6.7029,52.4992],[6.7488,52.464],[6.8325,52.4423],[6.9221,52.4403],[6.9682,52.4441],[7.0019,52.419],[7.0352,52.3802],[7.0326,52.3315],[7.0196,52.266],[6.9772,52.2055],[6.8551,52.1358],[6.8004,52.1112],[6.749,52.0987],[6.7245,52.0802],[6.713,52.0569],[6.7156,52.0362],[6.8024,51.9802],[6.8004,51.9674],[6.7752,51.9383],[6.7418,51.9109],[6.5176,51.854],[6.425,51.8584],[6.3722,51.83],[6.3557,51.8247],[6.2971,51.8507],[6.1665,51.8808],[6.1172,51.8704],[6.0898,51.854],[6.0076,51.834],[5.9487,51.8027],[5.9485,51.7624],[6.0527,51.6583],[6.0894,51.6378],[6.0911,51.5989],[6.1416,51.5501],[6.1933,51.4889],[6.1988,51.45],[6.1929,51.4106],[6.1662,51.3548],[6.0759,51.2241],[6.0748,51.199],[6.0824,51.18],[6.1134,51.1747],[6.1369,51.1648],[6.13,51.1474],[5.961,51.0567],[5.9393,51.0408],[5.8684,51.0453],[5.8575,51.0301],[5.8672,51.0057],[5.8947,50.9842],[5.9551,50.9729],[6.0068,50.95],[6.0484,50.9049],[5.9939,50.7504]]],[[[4.2262,51.3865],[4.2114,51.3487],[4.1726,51.3071],[4.04,51.2471],[3.9021,51.2077],[3.8308,51.2126],[3.7819,51.2332],[3.7557,51.2548],[3.6818,51.2757],[3.5803,51.2862],[3.5171,51.2636],[3.472,51.2422],[3.4325,51.2458],[3.4028,51.2636],[3.3801,51.2911],[3.3501,51.3777],[3.4258,51.3935],[3.5895,51.3994],[3.7165,51.3691],[3.8834,51.3545],[4.011,51.3959],[4.1115,51.3606],[4.2262,51.3865]]],[[[6.3334,53.5107],[6.1933,53.4768],[6.1593,53.4839],[6.1677,53.4937],[6.2909,53.515],[6.3334,53.5107]]],[[[5.9293,53.4588],[5.732,53.4426],[5.6653,53.4549],[5.6543,53.4665],[5.7081,53.4734],[5.8763,53.4751],[5.9282,53.465],[5.9293,53.4588]]],[[[5.1086,53.308],[4.9237,53.2346],[4.9079,53.2462],[5.0271,53.3102],[5.1086,53.308]]],[[[5.3258,53.3857],[5.2326,53.3778],[5.1902,53.3918],[5.4151,53.4314],[5.5574,53.4436],[5.5826,53.4381],[5.3258,53.3857]]],[[[4.8861,53.0707],[4.7871,52.9998],[4.7268,53.0196],[4.7092,53.036],[4.7398,53.0913],[4.8864,53.1833],[4.8861,53.0707]]],[[[3.9491,51.7395],[4.0468,51.6849],[4.0676,51.6675],[4.0751,51.6488],[3.951,51.6271],[3.819,51.694],[3.7318,51.6782],[3.699,51.7099],[3.6985,51.7297],[3.7891,51.7464],[3.9491,51.7395]]],[[[6.7348,53.5825],[6.6421,53.5792],[6.6686,53.6057],[6.7546,53.6255],[6.8009,53.6255],[6.7348,53.5825]]],[[[-68.2058,12.1446],[-68.2543,12.0321],[-68.2822,12.0823],[-68.2873,12.1717],[-68.3071,12.2067],[-68.3484,12.2281],[-68.3711,12.2575],[-68.3692,12.302],[-68.2195,12.2312],[-68.2058,12.1446]]],[[[-62.9375,17.4957],[-62.9617,17.475],[-62.9831,17.4769],[-62.9972,17.4968],[-62.9996,17.5304],[-62.9793,17.5212],[-62.9718,17.5161],[-62.9654,17.5093],[-62.9375,17.4957]]],[[[-63.2327,17.6231],[-63.2416,17.6196],[-63.2545,17.6287],[-63.2521,17.6453],[-63.2416,17.6518],[-63.2335,17.6472],[-63.2269,17.6341],[-63.2327,17.6231]]]]}},{"type":"Feature","properties":{"name":"Belgium"},"bbox":[2.524902,49.510889,6.364453,51.491113],"geometry":{"type":"Polygon","coordinates":[[[4.2262,51.3865],[4.3045,51.3615],[4.3737,51.356],[4.404,51.3671],[4.3848,51.4276],[4.4409,51.4598],[4.5034,51.4747],[4.5316,51.4486],[4.5888,51.4219],[4.634,51.4217],[4.7557,51.4911],[4.7842,51.4774],[4.8105,51.4527],[4.816,51.4328],[4.8207,51.4121],[4.848,51.4033],[4.9439,51.4078],[4.9926,51.4454],[5.031,51.4691],[5.0595,51.4531],[5.0734,51.4068],[5.0999,51.3465],[5.2142,51.279],[5.3108,51.2597],[5.4298,51.273],[5.4769,51.2851],[5.5088,51.275],[5.5404,51.2393],[5.6088,51.1984],[5.7523,51.1695],[5.7965,51.1531],[5.8271,51.1256],[5.8183,51.0864],[5.7498,50.9888],[5.7408,50.9599],[5.75,50.9502],[5.7366,50.9321],[5.6476,50.8666],[5.6395,50.8436],[5.6691,50.806],[5.6936,50.7748],[5.6937,50.7747],[5.7471,50.7596],[5.7974,50.7545],[5.8925,50.7526],[5.9939,50.7504],[6.006,50.7322],[6.1194,50.6792],[6.1545,50.6373],[6.2359,50.5967],[6.1685,50.5454],[6.1787,50.5225],[6.203,50.4991],[6.2949,50.4855],[6.3409,50.4518],[6.3437,50.4002],[6.3645,50.3162],[6.1751,50.2327],[6.1213,50.1394],[6.1165,50.121],[6.1101,50.1238],[6.0891,50.1546],[6.0548,50.1543],[5.9763,50.1672],[5.8669,50.0828],[5.8174,50.0127],[5.7881,49.9612],[5.744,49.9196],[5.7353,49.8756],[5.7408,49.8572],[5.7258,49.8334],[5.725,49.8083],[5.788,49.7589],[5.8037,49.7322],[5.8804,49.6448],[5.8565,49.6128],[5.8376,49.5783],[5.8154,49.5538],[5.7897,49.5383],[5.7104,49.5392],[5.6101,49.5282],[5.5424,49.511],[5.5073,49.5109],[5.4347,49.5545],[5.3535,49.6198],[5.302,49.651],[5.2788,49.6779],[5.215,49.6893],[5.1241,49.7215],[5.061,49.7565],[5.0069,49.7784],[4.9306,49.7893],[4.8676,49.7881],[4.8491,49.8471],[4.8415,49.9145],[4.79,49.9596],[4.8605,50.1359],[4.8187,50.1532],[4.7729,50.1391],[4.7066,50.0971],[4.6751,50.0469],[4.6562,50.0024],[4.545,49.9603],[4.3688,49.945],[4.1761,49.9603],[4.1493,49.9716],[4.137,49.9845],[4.1368,50],[4.1503,50.0239],[4.1839,50.0528],[4.1922,50.0941],[4.1577,50.1299],[4.1353,50.1438],[4.1441,50.1784],[4.1696,50.2218],[4.1746,50.2465],[4.0441,50.3213],[3.9497,50.3359],[3.8581,50.3386],[3.7886,50.347],[3.748,50.3435],[3.7188,50.3217],[3.6894,50.3061],[3.6673,50.3248],[3.6268,50.4573],[3.5954,50.4773],[3.477,50.4995],[3.3162,50.5074],[3.2733,50.5315],[3.2498,50.5912],[3.235,50.6629],[3.182,50.7317],[3.1549,50.7489],[3.1068,50.7794],[3.0229,50.7669],[2.922,50.7271],[2.8624,50.716],[2.8397,50.7118],[2.7594,50.7506],[2.6691,50.8114],[2.5968,50.8759],[2.5793,50.9118],[2.6015,50.9553],[2.5748,50.9886],[2.536,51.0495],[2.5249,51.0971],[2.9602,51.2654],[3.2252,51.3516],[3.3501,51.3777],[3.3801,51.2911],[3.4028,51.2636],[3.4325,51.2458],[3.472,51.2422],[3.5171,51.2636],[3.5803,51.2862],[3.6818,51.2757],[3.7557,51.2548],[3.7819,51.2332],[3.8308,51.2126],[3.9021,51.2077],[4.04,51.2471],[4.1726,51.3071],[4.2114,51.3487],[4.2262,51.3865]]]}}]}