{"type": "FeatureCollection", "features": [{"type": "Feature", "properties": {"name": "NLD"}, "geometry": {"type": "Polygon", "coordinates": [[[6.51763916015625, 53.57946149373232], [6.361083984374999, 53.54030739150022], [6.0040283203125, 53.50765128545441], [5.789794921875, 53.49621570004609], [5.460205078125, 53.461890432859114], [5.22125244140625, 53.41444321055106], [5.0152587890625, 53.33907339299762], [4.83673095703125, 53.24549522839595], [4.669189453125, 53.02965199827355], [4.63623046875, 52.97014623549323], [4.68841552734375, 52.88570596233458], [4.6197509765625, 52.73795463681313], [4.55108642578125, 52.50953477032727], [4.441223144531249, 52.30176096373671], [4.24072265625, 52.12168505384983], [4.08416748046875, 52.00686470791228], [3.9715576171875004, 51.998410382390325], [3.9440917968749996, 51.944264879028765], [3.9880371093749996, 51.891749018068246], [3.9578247070312496, 51.85953150985473], [3.856201171875, 51.83068574881732], [3.812255859375, 51.77633769050662], [3.72711181640625, 51.76274043738508], [3.66119384765625, 51.70660846336452], [3.66668701171875, 51.645294049305406], [3.6117553710937496, 51.614605707797466], [3.49639892578125, 51.590722643120145], [3.40301513671875, 51.549751017014195], [3.43597412109375, 51.50361379162682], [3.5018920898437496, 51.43860069927038], [3.4716796874999996, 51.411199044550045], [3.39752197265625, 51.40091918770499], [3.365014771650403, 51.373208313675235], [3.3879089355468706, 51.325731119714504], [3.3590698242187456, 51.30684774165125], [3.3947753906249956, 51.26046467313109], [3.4277343749999956, 51.244133563390044], [3.467559814453121, 51.2338161896068], [3.5307312011718706, 51.23725557130767], [3.5238647460937456, 51.2750718023457], [3.589782714843745, 51.295685728170945], [3.696899414062495, 51.27335355753477], [3.795776367187495, 51.24843178621375], [3.801269531249995, 51.20543147938065], [3.8424682617187456, 51.206291879267276], [3.8905334472656206, 51.21403475496856], [3.886413574218745, 51.19596601977129], [3.9207458496093706, 51.19596601977129], [3.93173217773437, 51.21059363760541], [3.9591979980468706, 51.206291879267276], [4.022369384765621, 51.23897516574192], [4.056701660156246, 51.23553591259625], [4.162445068359371, 51.28452100021081], [4.242095947265621, 51.34803781899259], [4.220123291015621, 51.36861898502653], [4.339599609374996, 51.37033366480188], [4.346466064453121, 51.351468655508214], [4.391784667968746, 51.34803781899259], [4.432983398437496, 51.366046844967045], [4.386291503906246, 51.4166057500442], [4.39865112304687, 51.432019379332516], [4.387664794921871, 51.44314821187472], [4.481048583984371, 51.472241571285515], [4.541473388671871, 51.474807742149466], [4.548339843749996, 51.46454219254386], [4.537353515624996, 51.43801216454896], [4.537353515624996, 51.418318632256586], [4.575805664062496, 51.42602580792306], [4.6760559082031214, 51.41746219917371], [4.674682617187496, 51.440580260408304], [4.699401855468746, 51.44742781012021], [4.707641601562496, 51.46197544423673], [4.768066406249996, 51.497041843152175], [4.806518554687495, 51.490201736015884], [4.835357666015621, 51.47737376865994], [4.8422241210937464, 51.46454219254386], [4.835357666015621, 51.4457160189511], [4.8271179199218714, 51.43030701058379], [4.839477539062496, 51.41317979305781], [4.783172607421871, 51.423456893781164], [4.7735595703124964, 51.418318632256586], [4.7817993164062464, 51.405470451068844], [4.802398681640621, 51.40375708743338], [4.855957031249996, 51.40375708743338], [4.888916015624996, 51.405470451068844], [4.910888671874996, 51.40290038154318], [4.927368164062495, 51.38919090463353], [4.9177551269531214, 51.386834174507456], [4.928398132324214, 51.38597715163977], [4.944534301757809, 51.39797401123045], [4.969253540039057, 51.416819863830966], [4.992599487304683, 51.429236747524584], [5.006332397460933, 51.436942081990935], [5.0083923339843714, 51.44464611688315], [5.013198852539058, 51.449353498480896], [5.010795593261715, 51.45769720957172], [5.015602111816402, 51.46710879648572], [5.027961730957027, 51.47694610759925], [5.037231445312496, 51.48058109880567], [5.043754577636714, 51.478656727783616], [5.042381286621089, 51.4724554243711], [5.048904418945308, 51.463686625815534], [5.082206726074215, 51.463686625815534], [5.106925964355464, 51.423456893781164], [5.074653625488278, 51.386191408861436], [5.119972229003903, 51.35382720660189], [5.124435424804683, 51.34632230440262], [5.134735107421871, 51.33967407875638], [5.137138366699214, 51.308564733579246], [5.165290832519528, 51.302769628348905], [5.1745605468749964, 51.308993971523506], [5.199623107910153, 51.3132861301382], [5.202369689941402, 51.31564664623815], [5.244598388671871, 51.29783248003144], [5.229492187499996, 51.26110920320315], [5.240478515624996, 51.25401887534852], [5.266227722167964, 51.25939043626129], [5.298843383789058, 51.25401887534852], [5.321502685546871, 51.25681216534913], [5.340042114257807, 51.25552297566764], [5.344161987304683, 51.25917558587485], [5.348281860351558, 51.26862805296551], [5.419006347656245, 51.25487836727032], [5.435829162597652, 51.26927246856834], [5.440979003906246, 51.26841324575645], [5.444068908691402, 51.274642247167215], [5.467758178710933, 51.2774342840391], [5.47908782958984, 51.2840915333845], [5.4849243164062464, 51.29246541215296], [5.519943237304683, 51.287741873404045], [5.522346496582027, 51.281299901125934], [5.541915893554684, 51.266050300186066], [5.559425354003902, 51.25788646246886], [5.55873870849609, 51.23639574998664], [5.563888549804684, 51.21467993584539], [5.654182434082027, 51.1910173918106], [5.657958984374996, 51.18671380504694], [5.653495788574215, 51.18563784556142], [5.6593322753906214, 51.177029265403455], [5.669288635253902, 51.17810542584066], [5.678215026855463, 51.177029265403455], [5.680274963378902, 51.17487686916915], [5.693664550781246, 51.17638355708364], [5.707397460937496, 51.17552259858991], [5.715293884277339, 51.17444637786455], [5.733833312988277, 51.17745973259276], [5.75099945068359, 51.18219460641226], [5.770912170410153, 51.17595307984632], [5.778465270996089, 51.16777324867253], [5.780525207519526, 51.165189842635556], [5.773658752441402, 51.16109915380345], [5.772972106933589, 51.15808472989695], [5.780525207519526, 51.155931449371046], [5.779838562011714, 51.146886573729496], [5.781898498535153, 51.14451738476773], [5.798034667968746, 51.15119387846674], [5.808334350585932, 51.1548547714223], [5.821037292480464, 51.1505478083838], [5.825157165527339, 51.160022596447746], [5.836830139160152, 51.152916687801564], [5.840263366699214, 51.14753269506792], [5.858802795410152, 51.13697824718137], [5.848846435546871, 51.132669615758715], [5.845413208007808, 51.124051146737756], [5.827217102050778, 51.12189627818634], [5.81142425537109, 51.108964955863755], [5.815887451171871, 51.100773246517036], [5.830650329589839, 51.09991087687244], [5.835456848144527, 51.09387383894211], [5.828247070312496, 51.08567945522011], [5.815544128417964, 51.08848296040778], [5.800781249999996, 51.084601138747175], [5.798034667968746, 51.080934674709134], [5.8062744140624964, 51.07230655418559], [5.800781249999996, 51.06605016071558], [5.803184509277339, 51.057635056699915], [5.799064636230463, 51.05159250021549], [5.786361694335933, 51.05267158598876], [5.776405334472652, 51.054613877019], [5.774345397949215, 51.04576500255096], [5.767822265624996, 51.03173283412226], [5.760269165039059, 51.024823128537356], [5.771598815917964, 51.02158384944993], [5.777435302734371, 51.018128368941454], [5.7760620117187464, 51.01121663530896], [5.768165588378902, 51.00257551954621], [5.769538879394527, 50.98961082751773], [5.757522583007808, 50.98118183522475], [5.750312805175776, 50.97253512500601], [5.741043090820308, 50.97080558974805], [5.7348632812499964, 50.96388680464141], [5.723190307617184, 50.95566940880388], [5.727310180664058, 50.94809946898437], [5.737609863281246, 50.949180964446164], [5.747566223144528, 50.95480433522675], [5.761299133300777, 50.950046142698326], [5.755805969238278, 50.94117730215909], [5.749626159667964, 50.93966294077057], [5.741386413574214, 50.926247872467734], [5.730056762695309, 50.91780737912145], [5.729370117187495, 50.90871590457853], [5.726280212402339, 50.902220906839666], [5.716667175292964, 50.90113831911738], [5.708770751953121, 50.904386006769904], [5.699501037597652, 50.90005570622334], [5.699157714843745, 50.89139389686571], [5.689888000488276, 50.884463289389466], [5.683021545410152, 50.87839816197712], [5.680961608886714, 50.87384879830013], [5.671691894531246, 50.87363215085696], [5.648345947265621, 50.865398801761565], [5.652122497558589, 50.86106487600234], [5.643882751464839, 50.85261256202059], [5.642852783203121, 50.83873877819847], [5.648002624511713, 50.82854759062147], [5.652809143066402, 50.82204141373953], [5.658302307128902, 50.81878798528832], [5.657958984374996, 50.812497380845926], [5.679931640624996, 50.80772463295176], [5.68405151367187, 50.804904143616085], [5.689888000488276, 50.80381929468499], [5.696067810058589, 50.8031683732354], [5.701560974121089, 50.800347608831466], [5.694007873535153, 50.788845807005224], [5.703964233398433, 50.7762556857869], [5.7005310058593714, 50.76626800664881], [5.683364868164058, 50.753671806308354], [5.688858032226558, 50.74802413309148], [5.703277587890621, 50.74867582246816], [5.708770751953121, 50.75258576822267], [5.717353820800778, 50.75410621448699], [5.724220275878903, 50.7577985212255], [5.72902679443359, 50.75171691961119], [5.741386413574214, 50.75041361645526], [5.74447631835937, 50.7562781949045], [5.751342773437495, 50.764530801281744], [5.769882202148433, 50.775387276604214], [5.779151916503902, 50.77560438041156], [5.7870483398437464, 50.76040468001729], [5.79666137695312, 50.76279353141163], [5.810737609863276, 50.74758966846711], [5.824813842773433, 50.75193413327594], [5.834083557128902, 50.750630836167794], [5.848503112792964, 50.758015706668246], [5.851936340332027, 50.74693796397068], [5.868759155273432, 50.75714695884972], [5.882492065429684, 50.75910161876356], [5.888671874999996, 50.76301069367289], [5.894165039062496, 50.75302018648079], [5.892448425292964, 50.749544727525446], [5.905838012695308, 50.7436793054097], [5.9078979492187464, 50.74758966846711], [5.9161376953124964, 50.74693796397068], [5.919914245605463, 50.74324480046554], [5.961799621582026, 50.754649219040715], [5.973987579345698, 50.75236855758172], [5.977249145507808, 50.74802413309148], [6.020455097573542, 50.75483552764186], [6.018387093629185, 50.76313939030369], [6.0277928649236685, 50.774195805289644], [5.974816511485955, 50.79797662123106], [5.9852208434392935, 50.81012703781278], [6.002841378046099, 50.801455749376856], [6.0254304553517954, 50.813539929438484], [6.024656372949977, 50.82750642190091], [6.016554207019695, 50.83336546992088], [6.019134521484375, 50.84497165243032], [6.057586669921761, 50.85710981721644], [6.055830581128504, 50.851474293085474], [6.075439453125114, 50.84583876895451], [6.076271597675586, 50.86015307076496], [6.088973164888358, 50.87246942998014], [6.075800675662322, 50.89036403967685], [6.080601456736474, 50.90747792483938], [6.094106481095167, 50.92072463554759], [6.075120111305477, 50.921347209520476], [6.0561337415157865, 50.92196978349337], [6.050999737968041, 50.929948677959544], [6.01857547523673, 50.934185547625574], [6.015602382090336, 50.952285741422926], [6.005507635347357, 50.9564271072263], [6.015294171561962, 50.96106917316902], [6.027058944887017, 50.983402521086674], [5.981298794103196, 50.982703045016876], [5.967190437083673, 50.97951271125786], [5.9536840380418425, 50.98827725941382], [5.9334516328267455, 50.98533552813359], [5.918044333289686, 50.97766589673416], [5.903812501057246, 50.97445235037101], [5.8970922323625246, 50.97458911343473], [5.8927429794599675, 50.980262417730884], [5.904416012781468, 50.98720924122884], [5.905604389417192, 51.00187738499265], [5.895426568578728, 51.004810799490414], [5.89531622096667, 51.011251424529604], [5.8839761315851575, 51.01353586899144], [5.874507413727741, 51.02870237616678], [5.87802946155017, 51.0365975864007], [5.868752906621239, 51.044908273723706], [5.866412368666317, 51.05135004719069], [5.891553173586971, 51.05245890561291], [5.9137213998042455, 51.0663348557768], [5.938258077851714, 51.03525084105669], [5.95671713855112, 51.03545530884247], [5.968570468797665, 51.04479796879852], [5.970808505321713, 51.060479106491115], [5.980803867888454, 51.07212305183124], [6.0170136255595, 51.09412997158097], [6.037100223531176, 51.09631915395783], [6.059994256944833, 51.115101614898364], [6.084115979210466, 51.12425148752752], [6.0917233753456514, 51.13464515419852], [6.120314771781523, 51.140613679875905], [6.124916958888377, 51.1449671049384], [6.162806425254331, 51.149215871481644], [6.163585399692849, 51.15258342793025], [6.175594115900935, 51.1584370182138], [6.139984130859375, 51.1733163190672], [6.180417998432887, 51.18668182163649], [6.165476940522666, 51.19462950525588], [6.117724624526431, 51.17923534523541], [6.100949626764773, 51.170295029698856], [6.0821929098669045, 51.171915896493246], [6.074014017184879, 51.18262828763892], [6.068068859777213, 51.221191796817], [6.085808644644089, 51.22236764552972], [6.072571164271494, 51.24221078770093], [6.084826440566488, 51.24748006732614], [6.124495498239952, 51.27507519151457], [6.128545756394729, 51.28578140732553], [6.145268635728264, 51.29805610212489], [6.153877790287201, 51.307446991908364], [6.154136357665239, 51.31116259047248], [6.159219939193876, 51.31554967813652], [6.159614867560613, 51.31996257600518], [6.163388037216128, 51.32503897650029], [6.169308069269395, 51.32939298777157], [6.168597245516139, 51.33268345409979], [6.188290552929722, 51.33508140191131], [6.194276969654837, 51.334796734499875], [6.189735476973027, 51.33938620544649], [6.226199446315718, 51.36031615491545], [6.214594873493596, 51.387842670103], [6.2163299912187355, 51.38863712961241], [6.214398263688537, 51.38955871311286], [6.226958044545654, 51.39986737736121], [6.211282751127911, 51.401139392063826], [6.205385711725086, 51.399869578493586], [6.215490474410672, 51.43324900428997], [6.2136142054898755, 51.446426394384254], [6.221063790977183, 51.44604696641263], [6.223274134284381, 51.468721984320794], [6.219892664294605, 51.484139723442816], [6.212976884599243, 51.4911680107696], [6.212584887084745, 51.51270211662505], [6.199537164289794, 51.52668932485743], [6.177169752664355, 51.538647136448766], [6.156899271026688, 51.56654562198307], [6.136512372494558, 51.576877256623106], [6.12165907881322, 51.59261194005437], [6.09189428300445, 51.60530799982797], [6.104149737188564, 51.633081163973756], [6.118269129138355, 51.655937215422135], [6.080178800186431, 51.66191079307349], [6.031370829080316, 51.67395416005246], [6.027374267578125, 51.70916142932303], [6.043853759765739, 51.71596863417754], [5.995396576704223, 51.73892012326613], [5.95458984375, 51.73808497487476], [5.951560944880583, 51.749191704137864], [5.990429753141655, 51.76610963393124], [5.982440846144328, 51.77447804298167], [5.99029541015625, 51.78313478108053], [5.974306564718717, 51.78586485676945], [5.977494468882782, 51.797370134775846], [5.9625842664692215, 51.806771978376574], [5.949072017379422, 51.81098740921133], [5.946754426326088, 51.81605100651226], [5.958416368518542, 51.81650543151208], [5.944461497581443, 51.823751816080836], [5.962963932829155, 51.836800543310545], [5.983520788878849, 51.83070435776365], [6.00128173828125, 51.832383069996645], [6.029165518130782, 51.84480826777549], [6.035614013671875, 51.84341409848528], [6.054227429309236, 51.852169299977696], [6.052117518311903, 51.8558274467146], [6.06375414833704, 51.86509730382268], [6.09466552734375, 51.84935276370605], [6.141357421875, 51.84511093992763], [6.16607666015625, 51.84171719308102], [6.164887036743352, 51.861833775210286], [6.146285952259859, 51.870124306573274], [6.13716356190173, 51.885384513124556], [6.103272608643891, 51.892437516236114], [6.116698539652731, 51.90078330739823], [6.1578369140625, 51.90446010157102], [6.191261882878365, 51.891430986968615], [6.18255615234375, 51.88412064173134], [6.213442869040222, 51.86754999281611], [6.259460449218864, 51.86801203959148], [6.272187403565766, 51.8748409805036], [6.2967229742443465, 51.867913847055235], [6.3065196789552544, 51.849208838899656], [6.335819259005021, 51.85115180330092], [6.3604589946396, 51.8456105682432], [6.3639402470823825, 51.834769717921645], [6.383295148565679, 51.83318243513766], [6.405212964477641, 51.827419679980046], [6.402766546160635, 51.84463235311625], [6.408241863348252, 51.85349597058354], [6.387176513671875, 51.865468048540635], [6.39129638671875, 51.87225170493509], [6.450347900390625, 51.86037963477381], [6.47369384765625, 51.85613885029435], [6.50665283203125, 51.868860004633994], [6.554718017578011, 51.88412064173134], [6.683807373046875, 51.91716758909015], [6.725006103515625, 51.89937609970991], [6.775817871093636, 51.922249577310254], [6.80328369140625, 51.959499914870015], [6.8280029296875, 51.967961587186856], [6.82525634765625, 51.99502820505106], [6.790924072265739, 52.00771005263849], [6.725006103515625, 52.03813182908344], [6.689300537109375, 52.040666043171306], [6.696166992187614, 52.06937709602395], [6.744232177734261, 52.07781801208549], [6.7620849609375, 52.1191554356042], [6.851348876953239, 52.12168505384983], [6.8719482421875, 52.13011607781287], [6.882934570312614, 52.15708463620445], [6.906280517578125, 52.175616047410195], [6.955718994140625, 52.18319485497131], [6.988677978515511, 52.22779941887071], [7.04498291015625, 52.232005085482086], [7.06695556640625, 52.24041522350549], [7.02850341796875, 52.2723592163169], [7.029876708984375, 52.30092118457955], [7.060089111328125, 52.33785640298243], [7.073822021484375, 52.36134458395732], [7.0587158203125, 52.40074312027673], [7.038116455078239, 52.40241887397332], [6.99005126953125, 52.468560246396606], [6.943359375, 52.435920583590125], [6.851348876953239, 52.45098804923731], [6.85272216796875, 52.46019340812783], [6.777191162109375, 52.46019340812783], [6.700286865234375, 52.484452858289536], [6.70166015625, 52.530425435309255], [6.678314208984261, 52.552976197007524], [6.711273193359375, 52.55047112887276], [6.725006103515625, 52.56049054341193], [6.7620849609375, 52.56216022339713], [6.722259521484375, 52.58886646089915], [6.730499267578125, 52.61639023304539], [6.705780029296875, 52.62972886718355], [6.75384521484375, 52.64556321596617], [6.801910400390511, 52.649729197309426], [6.881561279296875, 52.65056234595389], [6.9158935546875, 52.64389671230341], [6.9873046875, 52.64389671230341], [7.0367431640625, 52.63472980703678], [7.05322265625, 52.64722965612817], [7.071075439453125, 52.812723127915476], [7.09442138671875, 52.83844698864907], [7.087554931640625, 52.850888551064045], [7.180938720703011, 52.94284534702008], [7.211151123046875, 53.00899956922623], [7.197418212890625, 53.0899005263007], [7.205657958984375, 53.115460035462974], [7.183685302734375, 53.124525888278804], [7.17681884765625, 53.140180585580396], [7.2015380859375, 53.173942344283866], [7.222137451171875, 53.17888086250648], [7.209777832031136, 53.18957903509227], [7.216644287109375, 53.212612189941574], [7.212524414062386, 53.24138622958715], [7.218017578125, 53.25781985776562], [7.211151123046875, 53.28410053532493], [7.2015380859375, 53.30544169165485], [7.115020751953011, 53.31856941172296], [7.03399658203125, 53.3284125525758], [6.99005126953125, 53.341533208558765], [6.977691650390739, 53.3866046856269], [6.910400390625, 53.4242642241857], [6.87744140625, 53.45861991140519], [6.7840576171875, 53.47987379799574], [6.712646484375, 53.51255130636257], [6.6302490234375, 53.5517310815021], [6.51763916015625, 53.57946149373232]]]}}, {"type": "Feature", "properties": {"name": "BEL"}, "geometry": {"coordinates": [[[4.768066406249996, 51.497041843152175], [4.707641601562496, 51.46197544423673], [4.699401855468746, 51.44742781012021], [4.674682617187496, 51.440580260408304], [4.6760559082031214, 51.41746219917371], [4.575805664062496, 51.42602580792306], [4.537353515624996, 51.418318632256586], [4.537353515624996, 51.43801216454896], [4.548339843749996, 51.46454219254386], [4.541473388671871, 51.474807742149466], [4.481048583984371, 51.472241571285515], [4.387664794921871, 51.44314821187472], [4.39865112304687, 51.432019379332516], [4.386291503906246, 51.4166057500442], [4.432983398437496, 51.366046844967045], [4.391784667968746, 51.34803781899259], [4.346466064453121, 51.351468655508214], [4.339599609374996, 51.37033366480188], [4.220123291015621, 51.36861898502653], [4.242095947265621, 51.34803781899259], [4.162445068359371, 51.28452100021081], [4.056701660156246, 51.23553591259625], [4.022369384765621, 51.23897516574192], [3.9591979980468706, 51.206291879267276], [3.93173217773437, 51.21059363760541], [3.9207458496093706, 51.19596601977129], [3.886413574218745, 51.19596601977129], [3.8905334472656206, 51.21403475496856], [3.8424682617187456, 51.206291879267276], [3.801269531249995, 51.20543147938065], [3.795776367187495, 51.24843178621375], [3.696899414062495, 51.27335355753477], [3.589782714843745, 51.295685728170945], [3.5238647460937456, 51.2750718023457], [3.5307312011718706, 51.23725557130767], [3.467559814453121, 51.2338161896068], [3.4277343749999956, 51.244133563390044], [3.3947753906249956, 51.26046467313109], [3.3590698242187456, 51.30684774165125], [3.3879089355468706, 51.325731119714504], [3.365014771650403, 51.373208313675235], [3.3453369140624956, 51.36776162105967], [3.2794189453124956, 51.34889555220436], [3.2354736328124956, 51.35404161431715], [3.213500976562495, 51.36433200466182], [3.1668090820312456, 51.3471800697254], [3.1668090820312456, 51.324872952968214], [3.1256103515624956, 51.31972361526127], [2.9058837890624956, 51.22865663496169], [2.5438191441264406, 51.094407343990966], [2.5762939453124956, 51.00106315878435], [2.6037597656249956, 50.98377553432736], [2.6339721679687456, 50.94225895866794], [2.598266601562496, 50.914560627799766], [2.6147460937499956, 50.84524262807539], [2.6449584960937456, 50.810544952011576], [2.7136230468749956, 50.796658659979514], [2.779541015624996, 50.742810291489306], [2.8344726562499956, 50.7115150481646], [2.9086303710937456, 50.690639937985786], [2.9278564453124956, 50.71673237379154], [2.9992675781249956, 50.75671257889296], [3.0871582031249956, 50.77408463259667], [3.150329589843746, 50.77408463259667], [3.180541992187496, 50.742810291489306], [3.2025146484374956, 50.708036508444714], [3.2492065429687456, 50.70107865465203], [3.2519531249999956, 50.68019889799523], [3.2464599609374956, 50.66279200127235], [3.2849121093749956, 50.53028858259353], [3.3453369140624956, 50.50409250751008], [3.4304809570312456, 50.49186269688782], [3.4634399414062456, 50.52155817290611], [3.501892089843746, 50.51806555675019], [3.501892089843746, 50.49186269688782], [3.6035156249999956, 50.48836788366462], [3.6529541015624956, 50.44815894982692], [3.6721801757812456, 50.38165187099257], [3.6694335937499956, 50.34310509110133], [3.7243652343749956, 50.302772707843225], [3.7298583984374956, 50.33258689935539], [3.8122558593749956, 50.344857896640924], [3.900146484374995, 50.32557347765252], [4.031982421874996, 50.35186847191796], [4.067687988281246, 50.32206637862153], [4.110260009765621, 50.298386690775416], [4.126739501953121, 50.27908341090702], [4.137725830078121, 50.264161876750194], [4.143218994140621, 50.251870043299455], [4.159698486328121, 50.250991933833454], [4.1693115234374964, 50.25889433648135], [4.152832031249996, 50.270306604174266], [4.170684814453121, 50.28083857810035], [4.180297851562496, 50.27206209495873], [4.21737670898437, 50.263283993824466], [4.228363037109371, 50.24747933414728], [4.1995239257812464, 50.23166943133877], [4.172058105468745, 50.21321791727956], [4.15695190429687, 50.2061868915274], [4.162445068359371, 50.194759265160144], [4.150085449218746, 50.17101622249759], [4.155578613281246, 50.160459970633504], [4.132232666015621, 50.13141825532215], [4.141845703124996, 50.12173376463885], [4.1693115234374964, 50.12525562434536], [4.202270507812495, 50.12525562434536], [4.209136962890621, 50.09971627037375], [4.232482910156245, 50.07856995161947], [4.226989746093746, 50.06358566357687], [4.196777343749996, 50.04683297721373], [4.167938232421871, 50.04418728152225], [4.137725830078121, 50.010662512866546], [4.165191650390621, 49.99035983681001], [4.140472412109371, 49.96916529395198], [4.192657470703121, 49.96298179346026], [4.203643798828121, 49.95061240935978], [4.220123291015621, 49.94972876033166], [4.301147460937496, 49.957681017935236], [4.383544921874995, 49.94000755095878], [4.4563293457031214, 49.93382030535375], [4.5208740234374964, 49.944426525691156], [4.541473388671871, 49.95591396306511], [4.575805664062496, 49.97269836616347], [4.6307373046874964, 49.98064683033286], [4.666442871093746, 49.986828061383456], [4.694595336914059, 49.98417905961818], [4.687728881835933, 50.00933868664277], [4.70077514648437, 50.03977746463456], [4.701461791992183, 50.05168304056892], [4.689102172851558, 50.05212393111528], [4.687042236328121, 50.06623028991923], [4.707641601562496, 50.08694148515894], [4.747467041015621, 50.104560987667575], [4.7584533691406214, 50.12789684907593], [4.801712036132808, 50.1415408549638], [4.827804565429683, 50.159140275214405], [4.835357666015621, 50.148141396588315], [4.873809814453121, 50.14638134121711], [4.883422851562496, 50.137139987836925], [4.900588989257808, 50.13097809371167], [4.879989624023434, 50.12085325922366], [4.876556396484371, 50.10896485093808], [4.873809814453121, 50.08121375173522], [4.854583740234371, 50.092668534172866], [4.842910766601558, 50.08738205168905], [4.843597412109371, 50.0754853338771], [4.827804565429683, 50.05565090966375], [4.842910766601558, 50.03580828307945], [4.823684692382809, 50.02081063581732], [4.820251464843746, 50.00448434517136], [4.816818237304683, 49.983737545140826], [4.794158935546871, 49.97269836616347], [4.800338745117184, 49.94928692973781], [4.847717285156246, 49.941333285939066], [4.860763549804684, 49.92895834072565], [4.885482788085933, 49.907736754834886], [4.888229370117183, 49.894910853555615], [4.8641967773437464, 49.860839327003504], [4.852523803710933, 49.85774072329312], [4.8573303222656214, 49.841359088174244], [4.869003295898434, 49.83560206041656], [4.877243041992183, 49.811237819551955], [4.8490905761718714, 49.78686130756695], [4.862136840820308, 49.78287125537443], [4.928741455078121, 49.77888087454492], [4.954147338867182, 49.79395392226139], [4.998779296874996, 49.79351066427082], [5.009765624999996, 49.77622043807853], [5.062637329101558, 49.756706107364266], [5.093536376953121, 49.757593292820474], [5.126495361328121, 49.70788590845715], [5.149841308593746, 49.705221576102645], [5.160827636718746, 49.71010607379594], [5.170440673828121, 49.6861229178462], [5.249404907226557, 49.68034742725245], [5.270004272460933, 49.68923251322782], [5.335235595703121, 49.64656929016845], [5.305023193359371, 49.627892363420386], [5.337295532226559, 49.60698349963046], [5.348281860351558, 49.62566844262058], [5.427246093749996, 49.59140724114244], [5.433425903320308, 49.564248154782916], [5.456085205078121, 49.557121957687826], [5.441665649414058, 49.54509414178148], [5.467758178710933, 49.530389455720595], [5.469131469726558, 49.517909282509386], [5.454025268554683, 49.50631769774112], [5.465011596679683, 49.49204736077805], [5.484237670898433, 49.49516935257556], [5.526123046874996, 49.50408823189598], [5.5522155761718714, 49.51924659629845], [5.580368041992183, 49.516571932149816], [5.616073608398433, 49.50052087523032], [5.622253417968746, 49.52504120013074], [5.660018920898433, 49.54509414178148], [5.721130371093745, 49.53618273902052], [5.752659814593382, 49.539927446266255], [5.760269165039059, 49.54999472059031], [5.759517101260793, 49.561060117069594], [5.780817484316767, 49.55867110401856], [5.80119581462301, 49.54994553936426], [5.818385493042878, 49.54645194645722], [5.820392959096462, 49.54907802705212], [5.825966307325198, 49.551911365861244], [5.828258906178543, 49.55018369911765], [5.835539005159457, 49.55254378333351], [5.841413068691817, 49.553231552877406], [5.846963583365689, 49.55700240255028], [5.844173283725251, 49.56055998147235], [5.850710932885633, 49.56296941841982], [5.851624440258849, 49.56477087087809], [5.860833141101917, 49.56639790865203], [5.860947204978667, 49.57015211132965], [5.871842426821859, 49.574156819749554], [5.87014269088815, 49.57653909709096], [5.872192382812495, 49.57983308534051], [5.866661346096744, 49.58035259538169], [5.87280328301497, 49.583784913875135], [5.868668319807919, 49.590742221517075], [5.864345323007174, 49.58670105110554], [5.850414417319565, 49.587027450660386], [5.847444640405494, 49.59711293871644], [5.875876321809382, 49.60784274486389], [5.876181817854298, 49.6219944556937], [5.886591976324151, 49.626692115436576], [5.88161782987029, 49.631284585298275], [5.892235267168797, 49.636121691540204], [5.899772644071181, 49.634499244704315], [5.907820356366479, 49.63830663314179], [5.90301872583362, 49.64557918070004], [5.904011606758128, 49.660354828008195], [5.911221111050235, 49.66260158432723], [5.908245807952893, 49.6655564459992], [5.902061236972044, 49.66401061916385], [5.902350873885682, 49.66795850242232], [5.899007709187934, 49.665929959958845], [5.895887232995027, 49.668335143166445], [5.892498963173692, 49.666221659468505], [5.889823154714676, 49.670418724743044], [5.886611049719438, 49.66796578186768], [5.884448896575783, 49.66861113956009], [5.884782840674117, 49.67064119391411], [5.8822414609889275, 49.67054727176006], [5.882507481423197, 49.67174410112158], [5.8666365975535335, 49.675291650463336], [5.862092597103366, 49.68205772286109], [5.866308654548394, 49.69348037639807], [5.886140037231878, 49.70902878135292], [5.873875666180817, 49.717162898425705], [5.877090682383136, 49.718457260184884], [5.8651302416619675, 49.72728781417744], [5.853052027587376, 49.72486204278701], [5.843832957571574, 49.72101447971385], [5.835516372842743, 49.72446115894003], [5.823900775738163, 49.72392673401279], [5.827680569715578, 49.72751572295799], [5.825666635395225, 49.731940411666265], [5.82817861476726, 49.73298011892875], [5.827620147646948, 49.736627274814985], [5.827890749483119, 49.73937477742113], [5.832560034484568, 49.74126949150988], [5.830387722280572, 49.74306121318533], [5.83261355865537, 49.74582978288734], [5.8304234050601975, 49.750203449423914], [5.823421103828916, 49.74941116009015], [5.81978582244538, 49.754036893509905], [5.815598542315327, 49.76222888050694], [5.809707976412073, 49.765775347333125], [5.806853403611107, 49.77369043547638], [5.8000441294366505, 49.77746995411995], [5.798502488117828, 49.78172116027413], [5.792268857458363, 49.78739805924123], [5.7934550016064135, 49.79007716598184], [5.788569159547332, 49.79703251773392], [5.784045445547371, 49.79590037873784], [5.7811777277846295, 49.792273951606376], [5.7762702903815635, 49.79482030815993], [5.754863441906347, 49.791271848206435], [5.750085555654837, 49.81444368877313], [5.746614089264335, 49.815160779010796], [5.743418622247062, 49.82068616806667], [5.748067663133578, 49.82372334190394], [5.743916603627244, 49.83136452886042], [5.739903887618861, 49.83418680303255], [5.741122094817814, 49.839288100914914], [5.748947016780597, 49.838917065918906], [5.7493958204723254, 49.84742231626463], [5.756593541580709, 49.84530962952175], [5.758209228515621, 49.8488864748517], [5.74583512629007, 49.85355696505111], [5.759905457256489, 49.85664693953066], [5.754978865472618, 49.861594577453694], [5.756985672023876, 49.86566023927409], [5.7526771395548755, 49.86862161964675], [5.756471559917212, 49.87309176804807], [5.763790302214718, 49.86967137948405], [5.76966851956379, 49.87246050781283], [5.774649694692395, 49.86728898452783], [5.7792707385836435, 49.872446556619046], [5.78384502202267, 49.87218651286706], [5.778515696445505, 49.87703258055565], [5.783711312408723, 49.87576449157497], [5.783518103303624, 49.87884365850236], [5.777299267722476, 49.883342086775826], [5.735607505299551, 49.8974689585476], [5.746697009720942, 49.90805528150959], [5.7622054517863095, 49.91564568281262], [5.76409846617815, 49.93145815963765], [5.77084465518092, 49.93134378583218], [5.7703993740848425, 49.93637769821529], [5.775154258868131, 49.93779782290706], [5.770508617573924, 49.949390155079485], [5.774863433042153, 49.95343565877165], [5.774559761272894, 49.95664123577626], [5.777680818755901, 49.95771751357205], [5.775150230786906, 49.960624350831694], [5.780635279373916, 49.96264786885614], [5.785627917858435, 49.96076454173654], [5.791601686304622, 49.9617968317726], [5.790940658128272, 49.963892134295065], [5.795860410484375, 49.96568536605899], [5.800502215575388, 49.96276604302088], [5.807053208463881, 49.962215270259286], [5.810841740562746, 49.96434767516719], [5.810633701206437, 49.971497185916824], [5.819121026619217, 49.9721338057162], [5.819819054843825, 49.9743378139685], [5.824531926780801, 49.97508902614811], [5.826751992192131, 49.97485073050542], [5.8308621771524525, 49.976222511278955], [5.833394566581912, 49.978180033124374], [5.836063326567252, 49.97864669666646], [5.839247776605045, 49.98384749197979], [5.839686731773892, 49.98952454973244], [5.83583241075554, 49.990933156057395], [5.832319016131944, 49.990632104402785], [5.829878996064064, 49.99433651235721], [5.823749645978072, 49.997328387560685], [5.821302300931105, 50.00049558647102], [5.821998803674983, 50.00573420458407], [5.819149671935658, 50.01263809805313], [5.823589286933607, 50.01470791427676], [5.8298017191731, 50.014674574543676], [5.833824884553688, 50.018303313650094], [5.8409230474642255, 50.01844137570353], [5.852454375426329, 50.02293264062035], [5.8513622978779365, 50.0261076754483], [5.8533452178575045, 50.026418251027934], [5.853688139155348, 50.02788119194454], [5.859976055675669, 50.028718558254596], [5.856505705882707, 50.036045028010456], [5.862765524560356, 50.038852536540276], [5.862974186247367, 50.04213247393048], [5.868664762601714, 50.043673705077865], [5.869640342744415, 50.04547823939066], [5.8661155928614015, 50.0516645783458], [5.857772827148433, 50.05697345978496], [5.855579386479884, 50.06332817476435], [5.867091211106962, 50.072225903681925], [5.887298583984371, 50.07972838525469], [5.8874020221516865, 50.09439116253868], [5.8954588589284596, 50.10096451941406], [5.8960900003032135, 50.112516472537976], [5.924202730548681, 50.12498517573913], [5.960576231631502, 50.13076378349177], [5.957555285625271, 50.13793818176849], [5.961925555630496, 50.14232586000693], [5.959627205655945, 50.15116183067019], [5.967315281524658, 50.15620691215645], [5.962561589673849, 50.16126721089774], [5.96478608819984, 50.17288389041114], [5.973427727939504, 50.17536071923008], [6.00300393881616, 50.17619885026539], [6.024383905670984, 50.18241502630394], [6.029926331726523, 50.16547755550434], [6.044329127095034, 50.15783012478454], [6.065244900150101, 50.153163115316744], [6.073193888312826, 50.157273736005905], [6.079747238398394, 50.156615354268865], [6.079420675938333, 50.17038582110032], [6.0851408595811405, 50.17121953412418], [6.093536016203951, 50.16907354143882], [6.09676685515809, 50.16891380818464], [6.10174224170765, 50.17031846127355], [6.1054327065897125, 50.16871708461671], [6.108774261951292, 50.16897808445738], [6.111010937170181, 50.166408235122894], [6.120458409114316, 50.162869891888676], [6.114489429776622, 50.15580701528937], [6.1252896368764835, 50.14935117394477], [6.117512350709571, 50.14617805915954], [6.111991009112808, 50.13646224135621], [6.124048341274768, 50.13479322357543], [6.13086067074337, 50.129650123744995], [6.137517369121464, 50.129534795137474], [6.139162363207158, 50.13494496098434], [6.14718838796065, 50.13616664347829], [6.1546899124458, 50.14153453143754], [6.151870002469618, 50.14775921633292], [6.15327007043751, 50.14987245458322], [6.148514304622461, 50.151814889234544], [6.141813537710428, 50.1478775550813], [6.131616102334983, 50.154694926017825], [6.14234936944555, 50.15571906902343], [6.147866521851807, 50.16095980167597], [6.139888177481335, 50.16906145708441], [6.147045902273471, 50.17038463021833], [6.144217399212007, 50.173472161064055], [6.147625971634364, 50.17774530044522], [6.1584269394208295, 50.17133237361857], [6.1616429004548525, 50.177297255752094], [6.184727664784523, 50.17849772208456], [6.192923450652437, 50.181430490361656], [6.186664953238941, 50.18398919787468], [6.190275486627793, 50.18748422297823], [6.18332542851473, 50.19163875018501], [6.187340960179678, 50.20491865909391], [6.1779942859350525, 50.216251369574664], [6.165033891788819, 50.22153087714117], [6.176376342773434, 50.226837581826466], [6.17462327343247, 50.234772997477165], [6.193889772341546, 50.2372548593267], [6.21242523193359, 50.245503383040976], [6.258430480957028, 50.25823585298919], [6.278343200683589, 50.258674842995255], [6.294136047363276, 50.270306604174266], [6.288986206054683, 50.276889360907326], [6.289672851562496, 50.285006840816344], [6.299972534179682, 50.30123764787253], [6.310615539550777, 50.30386914891956], [6.3088989257812464, 50.312639767613135], [6.320915222167963, 50.31176277853574], [6.333961486816403, 50.316147562167345], [6.3391113281249964, 50.3097894939688], [6.344947814941403, 50.311324277931085], [6.348381042480465, 50.30693904946608], [6.365890502929684, 50.298386690775416], [6.361770629882808, 50.3029919980806], [6.363830566406245, 50.306500504377425], [6.375846862792964, 50.306281230316564], [6.384773254394526, 50.31395522089997], [6.3926696777343714, 50.31373598121291], [6.406059265136714, 50.315489870402224], [6.411209106445309, 50.328203632095565], [6.403999328613277, 50.32886114796157], [6.402969360351559, 50.33631235861484], [6.389579772949214, 50.34420060214433], [6.37172698974609, 50.3498968522326], [6.364173889160153, 50.363696470837716], [6.354560852050776, 50.36720049714252], [6.346321105957027, 50.371799139044754], [6.347694396972651, 50.374426734320934], [6.359710693359371, 50.38165187099257], [6.360397338867182, 50.38690582464737], [6.367950439453121, 50.393472448227335], [6.372070312499995, 50.40113235969953], [6.369667053222651, 50.41207294331722], [6.378250122070308, 50.42322973654648], [6.378593444824215, 50.43788270676074], [6.372413635253902, 50.447065838539416], [6.3693237304687464, 50.44531680795536], [6.359367370605464, 50.44859618727138], [6.343917846679683, 50.45515426411379], [6.344947814941403, 50.4634598565045], [6.3391113281249964, 50.46695651172778], [6.3432312011718714, 50.46936031221704], [6.344261169433589, 50.47657098048729], [6.352844238281246, 50.4809405472316], [6.338768005371089, 50.48159594740326], [6.331901550292964, 50.48509126149052], [6.311988830566402, 50.49361000656099], [6.306152343749996, 50.49164427863471], [6.2979125976562464, 50.49077059552457], [6.286582946777339, 50.49295477300679], [6.281433105468745, 50.494702042289475], [6.272163391113277, 50.496667642986544], [6.26632690429687, 50.492736359802535], [6.257743835449215, 50.49251794558849], [6.254653930664057, 50.49623084989985], [6.233024597167964, 50.48989689625793], [6.229763031005855, 50.48716648191526], [6.223068237304683, 50.49066138399982], [6.225814819335934, 50.492845566530875], [6.222209930419917, 50.49786880314912], [6.21740341186523, 50.502236400806375], [6.214828491210934, 50.504856765537504], [6.212081909179683, 50.50649441966126], [6.21465682983398, 50.508022845602625], [6.210708618164059, 50.510206225412055], [6.210365295410152, 50.51446352564251], [6.206846237182613, 50.51380858136459], [6.20092391967773, 50.51440894729975], [6.194658279418948, 50.513972318285916], [6.190109252929683, 50.51964818046849], [6.1941432952880815, 50.523577223722285], [6.199207305908199, 50.52374092675938], [6.200752258300783, 50.528815439247126], [6.194744110107424, 50.53028858259353], [6.189165115356447, 50.533725738197234], [6.180582046508792, 50.53448951654643], [6.1810111999511745, 50.54676282937666], [6.176977157592776, 50.5491080323124], [6.177577972412113, 50.550526005406105], [6.180496215820315, 50.552271144516624], [6.1841869354248065, 50.55434341330775], [6.188650131225589, 50.5560884111094], [6.1919975280761745, 50.558869367840735], [6.198434829711916, 50.559687265065484], [6.205730438232424, 50.562031825113976], [6.208734512329104, 50.568955775007694], [6.218175888061525, 50.57189950843213], [6.222896575927738, 50.57626025689923], [6.227703094482424, 50.583236614805855], [6.243066787719728, 50.57980306779036], [6.2483024597167915, 50.58438107484853], [6.252079010009761, 50.59070235297685], [6.250019073486324, 50.59658691801718], [6.258773803710933, 50.59985580296527], [6.267013549804684, 50.60519449347391], [6.272163391113277, 50.611621909000704], [6.271991729736331, 50.61679588519512], [6.272120475769046, 50.617939529444826], [6.271433830261233, 50.618429654182115], [6.270618438720706, 50.618701943495886], [6.26976013183594, 50.61960048704674], [6.26877307891846, 50.61987276958203], [6.267700195312503, 50.620281190429196], [6.265640258789065, 50.62017227855005], [6.26100540161133, 50.620825746041454], [6.253452301025393, 50.61951880197873], [6.244869232177737, 50.61930097443721], [6.234226226806642, 50.61930097443721], [6.2194633483886745, 50.62507306341435], [6.210536956787112, 50.624092947300454], [6.197147369384768, 50.626488750623636], [6.184444427490237, 50.61679588519512], [6.179037094116207, 50.619791084986936], [6.185817718505855, 50.62480081098745], [6.169424057006831, 50.635852992370886], [6.182126998901363, 50.63754053523084], [6.186504364013667, 50.63960905350061], [6.186590194702145, 50.64113316660207], [6.184015274047846, 50.641840773740235], [6.187019348144527, 50.64483437835294], [6.176204681396479, 50.64842645215217], [6.169509887695309, 50.654086132358124], [6.137924194335933, 50.687594874659005], [6.115951538085934, 50.7149933297752], [6.074752807617184, 50.713254221233115], [6.045913696289058, 50.720644986910195], [6.042480468749996, 50.71129764699394], [6.035614013671871, 50.71716712471356], [6.037330627441401, 50.725209289368735], [6.041793823242183, 50.73781314845488], [6.020455097573542, 50.75483552764186], [5.977249145507808, 50.74802413309148], [5.973987579345698, 50.75236855758172], [5.961799621582026, 50.754649219040715], [5.919914245605463, 50.74324480046554], [5.9161376953124964, 50.74693796397068], [5.9078979492187464, 50.74758966846711], [5.905838012695308, 50.7436793054097], [5.892448425292964, 50.749544727525446], [5.894165039062496, 50.75302018648079], [5.888671874999996, 50.76301069367289], [5.882492065429684, 50.75910161876356], [5.868759155273432, 50.75714695884972], [5.851936340332027, 50.74693796397068], [5.848503112792964, 50.758015706668246], [5.834083557128902, 50.750630836167794], [5.824813842773433, 50.75193413327594], [5.810737609863276, 50.74758966846711], [5.79666137695312, 50.76279353141163], [5.7870483398437464, 50.76040468001729], [5.779151916503902, 50.77560438041156], [5.769882202148433, 50.775387276604214], [5.751342773437495, 50.764530801281744], [5.74447631835937, 50.7562781949045], [5.741386413574214, 50.75041361645526], [5.72902679443359, 50.75171691961119], [5.724220275878903, 50.7577985212255], [5.717353820800778, 50.75410621448699], [5.708770751953121, 50.75258576822267], [5.703277587890621, 50.74867582246816], [5.688858032226558, 50.74802413309148], [5.683364868164058, 50.753671806308354], [5.7005310058593714, 50.76626800664881], [5.703964233398433, 50.7762556857869], [5.694007873535153, 50.788845807005224], [5.701560974121089, 50.800347608831466], [5.696067810058589, 50.8031683732354], [5.689888000488276, 50.80381929468499], [5.68405151367187, 50.804904143616085], [5.679931640624996, 50.80772463295176], [5.657958984374996, 50.812497380845926], [5.658302307128902, 50.81878798528832], [5.652809143066402, 50.82204141373953], [5.648002624511713, 50.82854759062147], [5.642852783203121, 50.83873877819847], [5.643882751464839, 50.85261256202059], [5.652122497558589, 50.86106487600234], [5.648345947265621, 50.865398801761565], [5.671691894531246, 50.87363215085696], [5.680961608886714, 50.87384879830013], [5.683021545410152, 50.87839816197712], [5.689888000488276, 50.884463289389466], [5.699157714843745, 50.89139389686571], [5.699501037597652, 50.90005570622334], [5.708770751953121, 50.904386006769904], [5.716667175292964, 50.90113831911738], [5.726280212402339, 50.902220906839666], [5.729370117187495, 50.90871590457853], [5.730056762695309, 50.91780737912145], [5.741386413574214, 50.926247872467734], [5.749626159667964, 50.93966294077057], [5.755805969238278, 50.94117730215909], [5.761299133300777, 50.950046142698326], [5.747566223144528, 50.95480433522675], [5.737609863281246, 50.949180964446164], [5.727310180664058, 50.94809946898437], [5.723190307617184, 50.95566940880388], [5.7348632812499964, 50.96388680464141], [5.741043090820308, 50.97080558974805], [5.750312805175776, 50.97253512500601], [5.757522583007808, 50.98118183522475], [5.769538879394527, 50.98961082751773], [5.768165588378902, 51.00257551954621], [5.7760620117187464, 51.01121663530896], [5.777435302734371, 51.018128368941454], [5.771598815917964, 51.02158384944993], [5.760269165039059, 51.024823128537356], [5.767822265624996, 51.03173283412226], [5.774345397949215, 51.04576500255096], [5.776405334472652, 51.054613877019], [5.786361694335933, 51.05267158598876], [5.799064636230463, 51.05159250021549], [5.803184509277339, 51.057635056699915], [5.800781249999996, 51.06605016071558], [5.8062744140624964, 51.07230655418559], [5.798034667968746, 51.080934674709134], [5.800781249999996, 51.084601138747175], [5.815544128417964, 51.08848296040778], [5.828247070312496, 51.08567945522011], [5.835456848144527, 51.09387383894211], [5.830650329589839, 51.09991087687244], [5.815887451171871, 51.100773246517036], [5.81142425537109, 51.108964955863755], [5.827217102050778, 51.12189627818634], [5.845413208007808, 51.124051146737756], [5.848846435546871, 51.132669615758715], [5.858802795410152, 51.13697824718137], [5.840263366699214, 51.14753269506792], [5.836830139160152, 51.152916687801564], [5.825157165527339, 51.160022596447746], [5.821037292480464, 51.1505478083838], [5.808334350585932, 51.1548547714223], [5.798034667968746, 51.15119387846674], [5.781898498535153, 51.14451738476773], [5.779838562011714, 51.146886573729496], [5.780525207519526, 51.155931449371046], [5.772972106933589, 51.15808472989695], [5.773658752441402, 51.16109915380345], [5.780525207519526, 51.165189842635556], [5.778465270996089, 51.16777324867253], [5.770912170410153, 51.17595307984632], [5.75099945068359, 51.18219460641226], [5.733833312988277, 51.17745973259276], [5.715293884277339, 51.17444637786455], [5.707397460937496, 51.17552259858991], [5.693664550781246, 51.17638355708364], [5.680274963378902, 51.17487686916915], [5.678215026855463, 51.177029265403455], [5.669288635253902, 51.17810542584066], [5.6593322753906214, 51.177029265403455], [5.653495788574215, 51.18563784556142], [5.657958984374996, 51.18671380504694], [5.654182434082027, 51.1910173918106], [5.563888549804684, 51.21467993584539], [5.55873870849609, 51.23639574998664], [5.559425354003902, 51.25788646246886], [5.541915893554684, 51.266050300186066], [5.522346496582027, 51.281299901125934], [5.519943237304683, 51.287741873404045], [5.4849243164062464, 51.29246541215296], [5.47908782958984, 51.2840915333845], [5.467758178710933, 51.2774342840391], [5.444068908691402, 51.274642247167215], [5.440979003906246, 51.26841324575645], [5.435829162597652, 51.26927246856834], [5.419006347656245, 51.25487836727032], [5.348281860351558, 51.26862805296551], [5.344161987304683, 51.25917558587485], [5.340042114257807, 51.25552297566764], [5.321502685546871, 51.25681216534913], [5.298843383789058, 51.25401887534852], [5.266227722167964, 51.25939043626129], [5.240478515624996, 51.25401887534852], [5.229492187499996, 51.26110920320315], [5.244598388671871, 51.29783248003144], [5.202369689941402, 51.31564664623815], [5.199623107910153, 51.3132861301382], [5.1745605468749964, 51.308993971523506], [5.165290832519528, 51.302769628348905], [5.137138366699214, 51.308564733579246], [5.134735107421871, 51.33967407875638], [5.124435424804683, 51.34632230440262], [5.119972229003903, 51.35382720660189], [5.074653625488278, 51.386191408861436], [5.106925964355464, 51.423456893781164], [5.082206726074215, 51.463686625815534], [5.048904418945308, 51.463686625815534], [5.042381286621089, 51.4724554243711], [5.043754577636714, 51.478656727783616], [5.037231445312496, 51.48058109880567], [5.027961730957027, 51.47694610759925], [5.015602111816402, 51.46710879648572], [5.010795593261715, 51.45769720957172], [5.013198852539058, 51.449353498480896], [5.0083923339843714, 51.44464611688315], [5.006332397460933, 51.436942081990935], [4.992599487304683, 51.429236747524584], [4.969253540039057, 51.416819863830966], [4.944534301757809, 51.39797401123045], [4.928398132324214, 51.38597715163977], [4.9177551269531214, 51.386834174507456], [4.927368164062495, 51.38919090463353], [4.910888671874996, 51.40290038154318], [4.888916015624996, 51.405470451068844], [4.855957031249996, 51.40375708743338], [4.802398681640621, 51.40375708743338], [4.7817993164062464, 51.405470451068844], [4.7735595703124964, 51.418318632256586], [4.783172607421871, 51.423456893781164], [4.839477539062496, 51.41317979305781], [4.8271179199218714, 51.43030701058379], [4.835357666015621, 51.4457160189511], [4.8422241210937464, 51.46454219254386], [4.835357666015621, 51.47737376865994], [4.806518554687495, 51.490201736015884], [4.768066406249996, 51.497041843152175]]], "type": "Polygon"}}]}